start=new Date('2023-04-18T00:00:00.000Z').valueOf();
sats=[{"EPHEMERIS_TYPE":"0","SEMIMAJOR_AXIS":"6927.833","ELEMENT_SET_NO":"999","CLASSIFICATION_TYPE":"U","RCS_SIZE":"LARGE","PERIOD":"95.644","REV_AT_EPOCH":"130","ARG_OF_PERICENTER":"277.9045","INCLINATION":"42.9993","LAUNCH_DATE":"2023-02-02","EPOCH":"2023-04-17T22:00:00.999936","MEAN_MOTION_DDOT":"0.0000000000000","MEAN_MOTION_DOT":"-0.00889825","TLE_LINE1":"1 55455U 23015G   23107.91667824 -.00889825  00000-0 -65528-1 0  9990","CENTER_NAME":"EARTH","MEAN_MOTION":"15.05589677","APOAPSIS":"550.560","TLE_LINE2":"2 55455  42.9993 308.7299 0001244 277.9045  13.2668 15.05589677  1308","FILE":"3889391","GP_ID":"230267120","OBJECT_NAME":"STARLINK-5680","REF_FRAME":"TEME","NORAD_CAT_ID":"55455","OBJECT_TYPE":"PAYLOAD","SITE":"AFETR","DECAY_DATE":null,"RA_OF_ASC_NODE":"308.7299","COUNTRY_CODE":"US","TIME_SYSTEM":"UTC","MEAN_ELEMENT_THEORY":"SGP4","OBJECT_ID":"2023-015G","BSTAR":"-0.06552800000000","MEAN_ANOMALY":"13.2668","ECCENTRICITY":"0.00012440","PERIAPSIS":"548.836"},{"NORAD_CAT_ID":"55456","REF_FRAME":"TEME","SITE":"AFETR","OBJECT_TYPE":"PAYLOAD","FILE":"3889391","GP_ID":"230267370","OBJECT_NAME":"STARLINK-5058","DECAY_DATE":null,"RA_OF_ASC_NODE":"308.5786","BSTAR":"-0.06454000000000","OBJECT_ID":"2023-015H","MEAN_ELEMENT_THEORY":"SGP4","COUNTRY_CODE":"US","TIME_SYSTEM":"UTC","PERIAPSIS":"546.553","ECCENTRICITY":"0.00012950","MEAN_ANOMALY":"80.0538","ELEMENT_SET_NO":"999","CLASSIFICATION_TYPE":"U","SEMIMAJOR_AXIS":"6925.585","EPHEMERIS_TYPE":"0","REV_AT_EPOCH":"130","ARG_OF_PERICENTER":"274.2907","MEAN_MOTION_DDOT":"0.0000000000000","EPOCH":"2023-04-17T22:00:00.999936","LAUNCH_DATE":"2023-02-02","INCLINATION":"42.9990","RCS_SIZE":"LARGE","PERIOD":"95.597","TLE_LINE1":"1 55456U 23015H   23107.91667824 -.00893737  00000-0 -64540-1 0  9991","MEAN_MOTION_DOT":"-0.00893737","MEAN_MOTION":"15.06322744","TLE_LINE2":"2 55456  42.9990 308.5786 0001295 274.2907  80.0538 15.06322744  1307","APOAPSIS":"548.347","CENTER_NAME":"EARTH"},{"SEMIMAJOR_AXIS":"6925.860","EPHEMERIS_TYPE":"0","CLASSIFICATION_TYPE":"U","ELEMENT_SET_NO":"999","PERIOD":"95.603","RCS_SIZE":"LARGE","EPOCH":"2023-04-17T22:00:00.999936","MEAN_MOTION_DDOT":"0.0000000000000","LAUNCH_DATE":"2023-02-02","INCLINATION":"42.9991","ARG_OF_PERICENTER":"279.2778","REV_AT_EPOCH":"130","MEAN_MOTION_DOT":"-0.00891871","TLE_LINE1":"1 55457U 23015J   23107.91667824 -.00891871  00000-0 -64552-1 0  9992","CENTER_NAME":"EARTH","APOAPSIS":"548.618","TLE_LINE2":"2 55457  42.9991 308.5983 0001289 279.2778  66.8077 15.06233189  1306","MEAN_MOTION":"15.06233189","OBJECT_NAME":"STARLINK-5682","FILE":"3889391","GP_ID":"230267621","SITE":"AFETR","OBJECT_TYPE":"PAYLOAD","NORAD_CAT_ID":"55457","REF_FRAME":"TEME","DECAY_DATE":null,"RA_OF_ASC_NODE":"308.5983","MEAN_ELEMENT_THEORY":"SGP4","TIME_SYSTEM":"UTC","COUNTRY_CODE":"US","BSTAR":"-0.06455200000000","OBJECT_ID":"2023-015J","MEAN_ANOMALY":"66.8077","ECCENTRICITY":"0.00012890","PERIAPSIS":"546.832"},{"SEMIMAJOR_AXIS":"6922.310","EPHEMERIS_TYPE":"0","CLASSIFICATION_TYPE":"U","ELEMENT_SET_NO":"999","PERIOD":"95.529","RCS_SIZE":"LARGE","EPOCH":"2023-04-17T22:00:00.999936","MEAN_MOTION_DDOT":"0.0000000000000","INCLINATION":"42.9993","LAUNCH_DATE":"2023-02-02","REV_AT_EPOCH":"130","ARG_OF_PERICENTER":"273.1556","MEAN_MOTION_DOT":"-0.00883336","TLE_LINE1":"1 55458U 23015K   23107.91667824 -.00883336  00000-0 -61899-1 0  9991","CENTER_NAME":"EARTH","APOAPSIS":"545.032","TLE_LINE2":"2 55458  42.9993 308.3631 0001239 273.1556 171.2244 15.07392037  1305","MEAN_MOTION":"15.07392037","OBJECT_NAME":"STARLINK-5020","GP_ID":"230268371","FILE":"3889391","SITE":"AFETR","OBJECT_TYPE":"PAYLOAD","NORAD_CAT_ID":"55458","REF_FRAME":"TEME","RA_OF_ASC_NODE":"308.3631","DECAY_DATE":null,"MEAN_ELEMENT_THEORY":"SGP4","COUNTRY_CODE":"US","TIME_SYSTEM":"UTC","BSTAR":"-0.06189900000000","OBJECT_ID":"2023-015K","MEAN_ANOMALY":"171.2244","ECCENTRICITY":"0.00012390","PERIAPSIS":"543.317"},{"EPHEMERIS_TYPE":"0","SEMIMAJOR_AXIS":"6923.779","CLASSIFICATION_TYPE":"U","ELEMENT_SET_NO":"999","RCS_SIZE":"LARGE","PERIOD":"95.560","LAUNCH_DATE":"2023-02-02","INCLINATION":"42.9987","MEAN_MOTION_DDOT":"0.0000000000000","EPOCH":"2023-04-17T22:00:00.999936","REV_AT_EPOCH":"130","ARG_OF_PERICENTER":"275.6871","MEAN_MOTION_DOT":"-0.00881257","TLE_LINE1":"1 55459U 23015L   23107.91667824 -.00881257  00000-0 -62557-1 0  9994","CENTER_NAME":"EARTH","TLE_LINE2":"2 55459  42.9987 308.4575 0001279 275.6871 129.1283 15.06912097  1306","APOAPSIS":"546.530","MEAN_MOTION":"15.06912097","OBJECT_NAME":"STARLINK-5669","GP_ID":"230266620","FILE":"3889391","OBJECT_TYPE":"PAYLOAD","SITE":"AFETR","REF_FRAME":"TEME","NORAD_CAT_ID":"55459","RA_OF_ASC_NODE":"308.4575","DECAY_DATE":null,"TIME_SYSTEM":"UTC","COUNTRY_CODE":"US","MEAN_ELEMENT_THEORY":"SGP4","OBJECT_ID":"2023-015L","BSTAR":"-0.06255700000000","MEAN_ANOMALY":"129.1283","ECCENTRICITY":"0.00012790","PERIAPSIS":"544.759"},{"BSTAR":"-0.06204000000000","OBJECT_ID":"2023-015M","MEAN_ELEMENT_THEORY":"SGP4","COUNTRY_CODE":"US","TIME_SYSTEM":"UTC","PERIAPSIS":"543.913","ECCENTRICITY":"0.00012470","MEAN_ANOMALY":"146.7852","OBJECT_TYPE":"PAYLOAD","SITE":"AFETR","NORAD_CAT_ID":"55460","REF_FRAME":"TEME","OBJECT_NAME":"STARLINK-5678","FILE":"3889391","GP_ID":"230266870","DECAY_DATE":null,"RA_OF_ASC_NODE":"308.4022","TLE_LINE1":"1 55460U 23015M   23107.91667824 -.00880796  00000-0 -62040-1 0  9990","MEAN_MOTION_DOT":"-0.00880796","TLE_LINE2":"2 55460  42.9990 308.4022 0001247 281.2645 146.7852 15.07195462  1303","APOAPSIS":"545.640","MEAN_MOTION":"15.07195462","CENTER_NAME":"EARTH","CLASSIFICATION_TYPE":"U","ELEMENT_SET_NO":"999","SEMIMAJOR_AXIS":"6922.912","EPHEMERIS_TYPE":"0","EPOCH":"2023-04-17T22:00:00.999936","MEAN_MOTION_DDOT":"0.0000000000000","LAUNCH_DATE":"2023-02-02","INCLINATION":"42.9990","REV_AT_EPOCH":"130","ARG_OF_PERICENTER":"281.2645","PERIOD":"95.542","RCS_SIZE":"LARGE"},{"OBJECT_TYPE":"PAYLOAD","SITE":"AFETR","NORAD_CAT_ID":"55461","REF_FRAME":"TEME","OBJECT_NAME":"STARLINK-5646","FILE":"3889391","GP_ID":"230268122","DECAY_DATE":null,"RA_OF_ASC_NODE":"308.4961","BSTAR":"-0.06271900000000","OBJECT_ID":"2023-015N","MEAN_ELEMENT_THEORY":"SGP4","TIME_SYSTEM":"UTC","COUNTRY_CODE":"US","ECCENTRICITY":"0.00012850","PERIAPSIS":"545.340","MEAN_ANOMALY":"109.0145","CLASSIFICATION_TYPE":"U","ELEMENT_SET_NO":"999","SEMIMAJOR_AXIS":"6924.365","EPHEMERIS_TYPE":"0","MEAN_MOTION_DDOT":"0.0000000000000","EPOCH":"2023-04-17T22:00:00.999936","LAUNCH_DATE":"2023-02-02","INCLINATION":"42.9986","ARG_OF_PERICENTER":"279.7202","REV_AT_EPOCH":"130","PERIOD":"95.572","RCS_SIZE":"LARGE","TLE_LINE1":"1 55461U 23015N   23107.91667824 -.00879107  00000-0 -62719-1 0  9998","MEAN_MOTION_DOT":"-0.00879107","TLE_LINE2":"2 55461  42.9986 308.4961 0001285 279.7202 109.0145 15.06720894  1303","APOAPSIS":"547.120","MEAN_MOTION":"15.06720894","CENTER_NAME":"EARTH"},{"MEAN_MOTION_DOT":"-0.00881293","TLE_LINE1":"1 55462U 23015P   23107.91667824 -.00881293  00000-0 -60821-1 0  9990","CENTER_NAME":"EARTH","APOAPSIS":"543.312","TLE_LINE2":"2 55462  42.9991 308.2533 0001188 285.4046 204.8741 15.07942435  1309","MEAN_MOTION":"15.07942435","EPHEMERIS_TYPE":"0","SEMIMAJOR_AXIS":"6920.625","CLASSIFICATION_TYPE":"U","ELEMENT_SET_NO":"999","PERIOD":"95.494","RCS_SIZE":"LARGE","INCLINATION":"42.9991","LAUNCH_DATE":"2023-02-02","EPOCH":"2023-04-17T22:00:00.999936","MEAN_MOTION_DDOT":"0.0000000000000","REV_AT_EPOCH":"130","ARG_OF_PERICENTER":"285.4046","COUNTRY_CODE":"US","TIME_SYSTEM":"UTC","MEAN_ELEMENT_THEORY":"SGP4","OBJECT_ID":"2023-015P","BSTAR":"-0.06082100000000","MEAN_ANOMALY":"204.8741","PERIAPSIS":"541.668","ECCENTRICITY":"0.00011880","OBJECT_NAME":"STARLINK-5673","FILE":"3889391","GP_ID":"230267871","SITE":"AFETR","OBJECT_TYPE":"PAYLOAD","REF_FRAME":"TEME","NORAD_CAT_ID":"55462","DECAY_DATE":null,"RA_OF_ASC_NODE":"308.2533"},{"RA_OF_ASC_NODE":"308.3290","DECAY_DATE":null,"OBJECT_NAME":"STARLINK-5677","GP_ID":"230267121","FILE":"3889391","SITE":"AFETR","OBJECT_TYPE":"PAYLOAD","REF_FRAME":"TEME","NORAD_CAT_ID":"55463","MEAN_ANOMALY":"180.3098","PERIAPSIS":"542.790","ECCENTRICITY":"0.00012440","TIME_SYSTEM":"UTC","COUNTRY_CODE":"US","MEAN_ELEMENT_THEORY":"SGP4","OBJECT_ID":"2023-015Q","BSTAR":"-0.06163000000000","PERIOD":"95.518","RCS_SIZE":"LARGE","LAUNCH_DATE":"2023-02-02","INCLINATION":"42.9990","EPOCH":"2023-04-17T22:00:00.999936","MEAN_MOTION_DDOT":"0.0000000000000","ARG_OF_PERICENTER":"278.4658","REV_AT_EPOCH":"130","EPHEMERIS_TYPE":"0","SEMIMAJOR_AXIS":"6921.786","CLASSIFICATION_TYPE":"U","ELEMENT_SET_NO":"999","CENTER_NAME":"EARTH","APOAPSIS":"544.512","TLE_LINE2":"2 55463  42.9990 308.3290 0001244 278.4658 180.3098 15.07563132  1300","MEAN_MOTION":"15.07563132","MEAN_MOTION_DOT":"-0.00883606","TLE_LINE1":"1 55463U 23015Q   23107.91667824 -.00883606  00000-0 -61630-1 0  9990"},{"MEAN_MOTION":"15.08484510","TLE_LINE2":"2 55464  42.9997 308.1475 0001141 280.3107 254.6972 15.08484510  1307","APOAPSIS":"541.622","CENTER_NAME":"EARTH","TLE_LINE1":"1 55464U 23015R   23107.91667824 -.00880117  00000-0 -59836-1 0  9990","MEAN_MOTION_DOT":"-0.00880117","ARG_OF_PERICENTER":"280.3107","REV_AT_EPOCH":"130","EPOCH":"2023-04-17T22:00:00.999936","MEAN_MOTION_DDOT":"0.0000000000000","INCLINATION":"42.9997","LAUNCH_DATE":"2023-02-02","RCS_SIZE":"LARGE","PERIOD":"95.460","ELEMENT_SET_NO":"999","CLASSIFICATION_TYPE":"U","SEMIMAJOR_AXIS":"6918.967","EPHEMERIS_TYPE":"0","ECCENTRICITY":"0.00011410","PERIAPSIS":"540.043","MEAN_ANOMALY":"254.6972","BSTAR":"-0.05983600000000","OBJECT_ID":"2023-015R","MEAN_ELEMENT_THEORY":"SGP4","COUNTRY_CODE":"US","TIME_SYSTEM":"UTC","RA_OF_ASC_NODE":"308.1475","DECAY_DATE":null,"NORAD_CAT_ID":"55464","REF_FRAME":"TEME","OBJECT_TYPE":"PAYLOAD","SITE":"AFETR","FILE":"3889391","GP_ID":"230267371","OBJECT_NAME":"STARLINK-5676"}];
